[{"services":[],"suspended":false,"name":"Winston","number":0,"coordinate":{"streetAddress":"2330 West Hood Street","city":"Barnen","state":"Iowa","zipCode":66669}},{"services":[],"suspended":false,"name":"Jimbo","number":1,"coordinate":{"streetAddress":"753 North Barrel Avenue","city":"Lalapope","state":"South Dakota","zipCode":34277}},{"services":[],"suspended":true,"name":"Andrew","number":2,"coordinate":{"streetAddress":"8419 Oak Terrace","city":"Cuda","state":"Nevada","zipCode":80138}},{"services":[],"suspended":false,"name":"Sandy","number":3,"coordinate":{"streetAddress":"2935 West Hood Street","city":"Barnen","state":"Oregon","zipCode":13230}},{"services":[],"suspended":true,"name":"Jimbo","number":4,"coordinate":{"streetAddress":"3691 East Jurk Road","city":"Jesupe","state":"Iowa","zipCode":85228}},{"services":[],"suspended":false,"name":"Christopher","number":5,"coordinate":{"streetAddress":"6009 North Barrel Avenue","city":"Insata","state":"Vermont","zipCode":74103}},{"services":[],"suspended":true,"name":"Tyrone","number":6,"coordinate":{"streetAddress":"733 North Barrel Avenue","city":"Vernen","state":"Alaska","zipCode":81717}},{"services":[],"suspended":false,"name":"Winston","number":7,"coordinate":{"streetAddress":"6913 Kent Avenue","city":"Mallard","state":"Nevada","zipCode":19455}},{"services":[],"suspended":true,"name":"Brian","number":8,"coordinate":{"streetAddress":"2080 Earth Worm Avenue","city":"Salmon","state":"Arizona","zipCode":41165}},{"services":[],"suspended":false,"name":"Christopher","number":9,"coordinate":{"streetAddress":"2626 SW Beat Street","city":"Kerro","state":"California","zipCode":59115}}]